[{"OBJECT_NAME":"STARLINK-5401","OBJECT_ID":"2022-177BC","EPOCH":"2026-03-08T12:30:42.167232","MEAN_MOTION":15.02896874,"ECCENTRICITY":0.0001749,"INCLINATION":43.0079,"RA_OF_ASC_NODE":126.3191,"ARG_OF_PERICENTER":274.8194,"MEAN_ANOMALY":85.2449,"EPHEMERIS_TYPE":0,"CLASSIFICATION_TYPE":"U","NORAD_CAT_ID":54870,"ELEMENT_SET_NO":999,"REV_AT_EPOCH":17693,"BSTAR":0.0019979415,"MEAN_MOTION_DOT":0.0002715,"MEAN_MOTION_DDOT":0},{"OBJECT_NAME":"CZ-6A DEB","OBJECT_ID":"2024-140BF","EPOCH":"2026-03-09T14:11:25.351296","MEAN_MOTION":14.73413114,"ECCENTRICITY":0.0141768,"INCLINATION":88.9712,"RA_OF_ASC_NODE":279.0945,"ARG_OF_PERICENTER":214.1655,"MEAN_ANOMALY":145.0382,"EPHEMERIS_TYPE":0,"CLASSIFICATION_TYPE":"U","NORAD_CAT_ID":60654,"ELEMENT_SET_NO":999,"REV_AT_EPOCH":8470,"BSTAR":0.0017796,"MEAN_MOTION_DOT":0.0001358,"MEAN_MOTION_DDOT":0}]
